FLOCK 4G-27             
1 62641U 25009AJ  26068.75406453  .00012587  00000+0  47455-3 0  9991
2 62641  97.3976 150.8631 0000756 322.4974  37.6212 15.27199247 63710
STARLINK-32677          
1 63020U 25032R   26068.06897681  .00028769  00000+0  10516-2 0  9996
2 63020  43.0015 339.6819 0001167 291.3833  68.6894 15.27556910 60513
